[{"OBJECT_NAME":"STARLINK-4288","OBJECT_ID":"2022-076V","EPOCH":"2026-03-09T11:04:10.025760","MEAN_MOTION":15.088401,"ECCENTRICITY":0.00014259,"INCLINATION":53.2176,"RA_OF_ASC_NODE":95.1459,"ARG_OF_PERICENTER":94.4429,"MEAN_ANOMALY":265.6726,"EPHEMERIS_TYPE":0,"CLASSIFICATION_TYPE":"U","NORAD_CAT_ID":53005,"ELEMENT_SET_NO":999,"REV_AT_EPOCH":20281,"BSTAR":6.0562521e-5,"MEAN_MOTION_DOT":6.76e-6,"MEAN_MOTION_DDOT":0},{"OBJECT_NAME":"CICERO 3","OBJECT_ID":"2017-042AA","EPOCH":"2026-03-09T22:34:09.559488","MEAN_MOTION":15.06999011,"ECCENTRICITY":0.00123402,"INCLINATION":97.4153,"RA_OF_ASC_NODE":238.2133,"ARG_OF_PERICENTER":85.148,"MEAN_ANOMALY":275.1157,"EPHEMERIS_TYPE":0,"CLASSIFICATION_TYPE":"U","NORAD_CAT_ID":42849,"ELEMENT_SET_NO":999,"REV_AT_EPOCH":47226,"BSTAR":0.00039473976,"MEAN_MOTION_DOT":5.861e-5,"MEAN_MOTION_DDOT":0}]
